[Satellite]
VERSION=1.1
NAME=STARLINK-5189
NICKNAME=STARLINK-5189
TLE1=1 54052U 22136B   22321.58334491  .00003224  00000+0  27400-4 0  9994
TLE2=2 54052  53.2164   9.0450 0003037  11.5067 161.4671 15.73198176  1308
STATUS=0
